OBJECT_NAME,OBJECT_ID,EPOCH,MEAN_MOTION,ECCENTRICITY,INCLINATION,RA_OF_ASC_NODE,ARG_OF_PERICENTER,MEAN_ANOMALY,EPHEMERIS_TYPE,CLASSIFICATION_TYPE,NORAD_CAT_ID,ELEMENT_SET_NO,REV_AT_EPOCH,BSTAR,MEAN_MOTION_DOT,MEAN_MOTION_DDOT
TRITON-1,2013-066M,2026-06-04T22:29:36.786048,14.81658709,.00883983,97.8258,66.0234,274.5745,84.5375,0,U,39427,999,67227,.220319E-3,.1796E-4,0
GOMX-1,2013-066Q,2026-06-04T22:17:38.503104,14.69412184,.01300169,97.6488,357.1650,116.4594,245.0019,0,U,39430,999,66811,.3815542E-3,.2521E-4,0
CUBEBUG-2 (LO-74),2013-066AA,2026-06-03T07:55:56.668800,14.93641817,.00594532,97.8904,103.2522,73.9566,286.8190,0,U,39440,999,67492,.47122985E-3,.5093E-4,0
NEE-02 KRYSAOR,2013-066AB,2026-06-04T18:10:04.770624,14.86564783,.00676932,97.8893,95.0615,109.9850,250.8672,0,U,39441,999,67435,.27224659E-3,.2457E-4,0
FUNCUBE-1 (AO-73),2013-066AE,2026-06-04T14:14:41.227008,15.09331351,.00346471,97.8278,126.7780,245.3456,114.4162,0,U,39444,999,67776,.50552791E-3,.8112E-4,0
UWE-3,2013-066AG,2026-06-04T15:34:58.249920,14.96922367,.00493262,97.8702,111.6406,3.6109,356.5458,0,U,39446,999,67570,.40572144E-3,.4713E-4,0
SMDC ONE 2.4,2013-072H,2026-06-04T10:11:57.211872,15.17932180,.01434119,120.4929,302.8192,5.4328,354.8269,0,U,39469,999,11589,.44542882E-3,.11546E-3,0
COSMOS 2488 (RODNIK-S 7),2013-076A,2026-06-04T21:11:26.220768,12.42905602,.00206787,82.4827,176.3612,120.7278,239.5842,0,U,39483,999,56436,.35172E-3,.59E-6,0
COSMOS 2489 (RODNIK-S 8),2013-076B,2026-06-04T22:31:16.070880,12.42879700,.00225077,82.4864,177.7013,120.6906,239.6396,0,U,39484,999,56442,.38783974E-3,.64E-6,0
COSMOS 2490 (RODNIK-S 9),2013-076C,2026-06-04T21:50:45.619008,12.42877661,.00224428,82.4810,175.7916,135.8033,224.4844,0,U,39485,999,56435,-.13521706E-3,-.9E-7,0
KAZEOSAT 1,2014-024A,2026-06-04T22:46:12.019872,14.42074958,.00015056,98.3206,228.6996,77.9691,282.1667,0,U,39731,999,63679,.802548E-4,.221E-5,0
COSMOS 2496 (RODNIK-S 10),2014-028A,2026-06-04T22:45:32.785632,12.42877940,.00211622,82.4442,116.3968,104.0712,256.2722,0,U,39761,999,54599,.26864229E-4,.14E-6,0
COSMOS 2497 (RODNIK-S 11),2014-028B,2026-06-04T22:10:10.463808,12.42893582,.00217651,82.4488,118.0972,99.4324,260.9217,0,U,39762,999,54599,.51161125E-4,.17E-6,0
COSMOS 2498 (RODNIK-S 12),2014-028C,2026-06-04T23:35:03.043968,12.42979131,.00224941,82.4450,116.5526,98.9952,261.3675,0,U,39763,999,54603,-.88318626E-3,-.113E-5,0
HODOYOSHI-4,2014-033B,2026-06-04T22:20:18.040704,14.88099845,.00235279,97.5448,341.3452,350.1280,9.9472,0,U,40011,999,64698,.2074485E-3,.1865E-4,0
UNISAT-6,2014-033C,2026-06-04T21:30:43.554816,14.88175664,.00464502,97.7872,308.8262,108.6463,251.9805,0,U,40012,999,64433,.44484581E-3,.4127E-4,0
DEIMOS-2,2014-033D,2026-06-04T22:10:47.335008,14.93689254,.00019235,97.5836,30.8430,58.9602,301.1807,0,U,40013,999,63589,.18425856E-3,.1894E-4,0
BUGSAT-1 (TITA),2014-033E,2026-06-04T22:53:07.347264,15.15444318,.00270695,98.0422,247.7885,220.6222,139.2990,0,U,40014,999,65398,.25180615E-3,.4728E-4,0
SAUDISAT 4,2014-033G,2026-06-04T19:26:39.852672,14.79526950,.00461463,97.7570,302.3744,113.0298,247.5790,0,U,40016,999,64424,.13063645E-3,.943E-5,0
APRIZESAT 9,2014-033J,2026-06-04T05:50:42.551520,14.74197203,.00649105,97.9046,288.7598,241.3340,118.1332,0,U,40018,999,64165,.12372723E-3,.791E-5,0
BRITE-CA1 (TORONTO),2014-033L,2026-06-04T06:20:25.108800,14.72658739,.00776648,97.9724,284.4316,319.0531,40.4860,0,U,40020,999,64031,.13835154E-3,.87E-5,0
